OBJECT_NAME,OBJECT_ID,EPOCH,MEAN_MOTION,ECCENTRICITY,INCLINATION,RA_OF_ASC_NODE,ARG_OF_PERICENTER,MEAN_ANOMALY,EPHEMERIS_TYPE,CLASSIFICATION_TYPE,NORAD_CAT_ID,ELEMENT_SET_NO,REV_AT_EPOCH,BSTAR,MEAN_MOTION_DOT,MEAN_MOTION_DDOT
INTELSAT 21 (IS-21),2012-045A,2026-06-14T19:40:30.910080,1.00270906,.0001252,0.0174,329.7551,130.7827,39.7081,0,U,38749,999,5050,0,-.279E-5,0
ASTRA 2F,2012-051A,2026-06-14T20:05:06.482112,1.00268599,.0001394,0.0687,258.7022,282.7968,51.1008,0,U,38778,999,4111,0,.155E-5,0
GSAT-10,2012-051B,2026-06-14T20:41:07.396224,1.00270051,.0007758,0.0866,263.2126,184.0265,209.2120,0,U,38779,999,5007,0,-.159E-5,0
INTELSAT 23 (IS-23),2012-057A,2026-06-14T19:41:53.276928,1.00274390,.0000354,0.0130,355.8895,82.7935,66.9048,0,U,38867,999,4993,0,-.279E-5,0
BEIDOU-2 G6,2012-059A,2026-06-14T20:20:54.405024,1.00272440,.0009618,4.4143,73.5459,324.3341,254.5209,0,U,38953,999,4988,0,-.174E-5,0
LUCH-5B,2012-061A,2026-06-12T23:23:12.366816,1.00272671,.00023465,10.4721,49.9205,149.8007,36.0976,0,U,38977,999,4956,0,-.133E-5,0
YAMAL 300K,2012-061B,2026-06-14T19:06:34.164000,1.00268385,.0001364,0.0163,307.1099,303.9986,121.5877,0,U,38978,999,4960,0,.77E-6,0
STAR ONE C3,2012-062A,2026-06-14T19:35:38.876352,1.00271388,.0002121,0.0173,293.2985,163.3604,25.3802,0,U,38991,999,4974,0,-.243E-5,0
EUTELSAT 21B,2012-062B,2026-06-14T19:39:38.466144,1.00273959,.0003092,0.0665,7.0544,75.7128,136.8505,0,U,38992,999,4980,0,.136E-5,0
ECHOSTAR 16,2012-065A,2026-06-14T19:39:31.003776,1.00268663,.0002062,0.0236,17.8981,64.6819,53.9141,0,U,39008,999,4962,0,0,0
ZHONGXING-12,2012-067A,2026-06-14T20:22:01.797888,1.00272498,.00028,0.0336,86.6907,350.4900,218.9586,0,U,39017,999,4948,0,-.201E-5,0
EUTELSAT 70B,2012-069A,2026-06-14T20:17:09.764160,1.00271421,.0003962,0.0632,10.7868,65.5851,201.5420,0,U,39020,999,4948,0,-.38E-6,0
YAMAL 402,2012-070A,2026-06-14T21:35:38.858784,1.00270430,.000361,1.2593,84.1885,359.3577,198.4555,0,U,39022,999,4937,0,.91E-6,0
SKYNET 5D,2012-075A,2026-06-14T20:12:05.812416,1.00269309,.0003434,0.0674,344.9856,107.4104,166.5459,0,U,39034,999,4913,0,.105E-5,0
MEXSAT 3,2012-075B,2026-06-14T15:58:56.013312,1.00268166,.0001151,0.0153,36.6774,33.8030,317.4254,0,U,39035,999,702,0,-.19E-6,0
TDRS 11,2013-004A,2026-06-14T19:07:19.092000,1.00268642,.0005533,3.5173,31.2231,19.4631,324.8394,0,U,39070,999,4666,0,.82E-6,0
AMAZONAS 3,2013-006A,2026-06-14T19:39:38.492064,1.00273155,.0001782,0.0389,224.5099,265.4775,7.0266,0,U,39078,999,4489,0,-.277E-5,0
AZERSPACE 1,2013-006B,2026-06-14T20:10:13.492416,1.00268851,.0001172,0.0171,358.8586,115.2631,137.5639,0,U,39079,999,4878,0,.139E-5,0
SBIRS GEO-2 (USA 241),2013-011A,2026-06-14T16:17:31.730208,1.00271494,.0002181,4.4844,52.5094,23.0973,21.9458,0,U,39120,999,4851,0,-.283E-5,0
EUTELSAT 117 WEST A,2013-012A,2026-06-14T15:58:26.061024,1.00270745,.0002625,0.0128,353.9481,88.5260,303.2913,0,U,39122,999,4840,0,-.6E-7,0
ANIK G1,2013-014A,2026-06-14T16:01:10.797312,1.00270597,.0001452,0.0185,15.5983,62.1361,318.2110,0,U,39127,999,4822,0,-.67E-6,0
ZHONGXING-11,2013-020A,2026-06-14T22:04:24.367008,1.00270084,.0002008,0.0512,62.4492,14.7126,255.0683,0,U,39157,999,4787,0,-.285E-5,0
EUTELSAT 7B,2013-022A,2026-06-14T19:58:59.568096,1.00272437,.00046,0.0759,23.9070,12.1751,173.7945,0,U,39163,999,4792,0,.54E-6,0
WGS F5 (USA 243),2013-024A,2026-06-14T19:42:08.254368,1.00269310,.0000372,0.0239,355.5330,291.4432,219.1650,0,U,39168,999,4715,0,0,0
SES-6,2013-026A,2026-06-14T19:45:30.431232,1.00270003,.0002458,0.0179,359.4994,100.2301,59.2602,0,U,39172,999,4770,0,-.255E-5,0
IRNSS-1A,2013-034A,2026-06-09T14:20:49.169184,1.00272948,.00174117,35.7049,63.9797,184.2474,279.8453,0,U,39199,999,4729,0,.7E-6,0
MUOS-2,2013-036A,2026-06-14T13:07:33.565728,1.00272740,.0050878,4.9902,45.5295,177.5928,48.5591,0,U,39206,999,4716,0,-.1E-6,0
ALPHASAT,2013-038A,2026-06-14T20:04:06.578400,1.00262284,.000188,2.9987,1.3792,110.4965,117.1208,0,U,39215,999,4399,0,.137E-5,0
INSAT-3D,2013-038B,2026-06-14T20:34:00.649344,1.00270189,.0000547,1.9201,82.5677,307.9500,310.6563,0,U,39216,999,4705,0,-.335E-5,0
WGS F6 (USA 244),2013-041A,2026-06-14T17:35:48.214752,1.00270473,.0000268,0.0175,358.3421,298.0954,95.3526,0,U,39222,999,4603,0,.95E-6,0
ES'HAIL 1,2013-044A,2026-06-14T11:30:52.712064,1.00273168,.0002036,0.0540,20.6505,59.8985,20.4321,0,U,39233,999,4660,0,.151E-5,0
GSAT-7,2013-044B,2026-06-14T18:35:31.676352,1.00270266,.0003177,0.0780,95.5244,189.3275,331.0720,0,U,39234,999,4523,0,-.7E-6,0
