INTELSAT 21 (IS-21)     
1 38749U 12045A   26165.81980220 -.00000279  00000+0  00000+0 0  9990
2 38749   0.0174 329.7551 0001252 130.7827  39.7081  1.00270906 50508
ASTRA 2F                
1 38778U 12051A   26165.83688058  .00000155  00000+0  00000+0 0  9997
2 38778   0.0687 258.7022 0001394 282.7968  51.1008  1.00268599 41113
GSAT-10                 
1 38779U 12051B   26165.86189116 -.00000159  00000+0  00000+0 0  9997
2 38779   0.0866 263.2126 0007758 184.0265 209.2120  1.00270051 50075
INTELSAT 23 (IS-23)     
1 38867U 12057A   26165.82075552 -.00000279  00000+0  00000+0 0  9998
2 38867   0.0130 355.8895 0000354  82.7935  66.9048  1.00274390 49931
BEIDOU-2 G6             
1 38953U 12059A   26165.84785191 -.00000174  00000+0  00000+0 0  9999
2 38953   4.4143  73.5459 0009618 324.3341 254.5209  1.00272440 49889
LUCH-5B                 
1 38977U 12061A   26163.97444869 -.00000133  00000+0  00000+0 0  9999
2 38977  10.4721  49.9205 0002346 149.8007  36.0976  1.00272671 49565
YAMAL 300K              
1 38978U 12061B   26165.79622875  .00000077  00000+0  00000+0 0  9993
2 38978   0.0163 307.1099 0001364 303.9986 121.5877  1.00268385 49601
STAR ONE C3             
1 38991U 12062A   26165.81642218 -.00000243  00000+0  00000+0 0  9991
2 38991   0.0173 293.2985 0002121 163.3604  25.3802  1.00271388 49744
EUTELSAT 21B            
1 38992U 12062B   26165.81919521  .00000136  00000+0  00000+0 0  9996
2 38992   0.0665   7.0544 0003092  75.7128 136.8505  1.00273959 49809
ECHOSTAR 16             
1 39008U 12065A   26165.81910884  .00000000  00000+0  00000+0 0  9991
2 39008   0.0236  17.8981 0002062  64.6819  53.9141  1.00268663 49627
ZHONGXING-12            
1 39017U 12067A   26165.84863192 -.00000201  00000+0  00000+0 0  9999
2 39017   0.0336  86.6907 0002800 350.4900 218.9586  1.00272498 49488
EUTELSAT 70B            
1 39020U 12069A   26165.84525190 -.00000038  00000+0  00000+0 0  9996
2 39020   0.0632  10.7868 0003962  65.5851 201.5420  1.00271421 49484
YAMAL 402               
1 39022U 12070A   26165.89975531  .00000091  00000+0  00000+0 0  9991
2 39022   1.2593  84.1885 0003610 359.3577 198.4555  1.00270430 49378
SKYNET 5D               
1 39034U 12075A   26165.84173394  .00000105  00000+0  00000+0 0  9997
2 39034   0.0674 344.9856 0003434 107.4104 166.5459  1.00269309 49131
MEXSAT 3                
1 39035U 12075B   26165.66592608 -.00000019  00000+0  00000+0 0  9996
2 39035   0.0153  36.6774 0001151  33.8030 317.4254  1.00268166  7024
TDRS 11                 
1 39070U 13004A   26165.79674875  .00000082  00000+0  00000+0 0  9998
2 39070   3.5173  31.2231 0005533  19.4631 324.8394  1.00268642 46666
AMAZONAS 3              
1 39078U 13006A   26165.81919551 -.00000277  00000+0  00000+0 0  9991
2 39078   0.0389 224.5099 0001782 265.4775   7.0266  1.00273155 44894
AZERSPACE 1             
1 39079U 13006B   26165.84043394  .00000139  00000+0  00000+0 0  9994
2 39079   0.0171 358.8586 0001172 115.2631 137.5639  1.00268851 48784
SBIRS GEO-2 (USA 241)   
1 39120U 13011A   26165.67883947 -.00000283  00000+0  00000+0 0  9995
2 39120   4.4844  52.5094 0002181  23.0973  21.9458  1.00271494 48517
EUTELSAT 117 WEST A     
1 39122U 13012A   26165.66557941 -.00000006  00000+0  00000+0 0  9992
2 39122   0.0128 353.9481 0002625  88.5260 303.2913  1.00270745 48400
ANIK G1                 
1 39127U 13014A   26165.66748608 -.00000067  00000+0  00000+0 0  9998
2 39127   0.0185  15.5983 0001452  62.1361 318.2110  1.00270597 48223
ZHONGXING-11            
1 39157U 13020A   26165.91972647 -.00000285  00000+0  00000+0 0  9990
2 39157   0.0512  62.4492 0002008  14.7126 255.0683  1.00270084 47870
EUTELSAT 7B             
1 39163U 13022A   26165.83263389  .00000054  00000+0  00000+0 0  9999
2 39163   0.0759  23.9070 0004600  12.1751 173.7945  1.00272437 47927
WGS F5 (USA 243)        
1 39168U 13024A   26165.82092887  .00000000  00000+0  00000+0 0  9999
2 39168   0.0239 355.5330 0000372 291.4432 219.1650  1.00269310 47157
SES-6                   
1 39172U 13026A   26165.82326888 -.00000255  00000+0  00000+0 0  9990
2 39172   0.0179 359.4994 0002458 100.2301  59.2602  1.00270003 47705
IRNSS-1A                
1 39199U 13034A   26160.59779131  .00000070  00000+0  00000+0 0  9994
2 39199  35.7049  63.9797 0017411 184.2474 279.8453  1.00272948 47299
MUOS-2                  
1 39206U 13036A   26165.54691627 -.00000010  00000+0  00000+0 0  9993
2 39206   4.9902  45.5295 0050878 177.5928  48.5591  1.00272740 47166
ALPHASAT                
1 39215U 13038A   26165.83618725  .00000137  00000+0  00000+0 0  9994
2 39215   2.9987   1.3792 0001880 110.4965 117.1208  1.00262284 43992
INSAT-3D                
1 39216U 13038B   26165.85695196 -.00000335  00000+0  00000+0 0  9995
2 39216   1.9201  82.5677 0000547 307.9500 310.6563  1.00270189 47059
WGS F6 (USA 244)        
1 39222U 13041A   26165.73319693  .00000095  00000+0  00000+0 0  9990
2 39222   0.0175 358.3421 0000268 298.0954  95.3526  1.00270473 46039
ES'HAIL 1               
1 39233U 13044A   26165.47977676  .00000151  00000+0  00000+0 0  9990
2 39233   0.0540  20.6505 0002036  59.8985  20.4321  1.00273168 46600
GSAT-7                  
1 39234U 13044B   26165.77467218 -.00000070  00000+0  00000+0 0  9991
2 39234   0.0780  95.5244 0003177 189.3275 331.0720  1.00270266 45234
